ONEWEB-0053             
1 45157U 20008AC  26185.53310765 -.00000614  00000+0 -17960-2 0  9991
2 45157  87.8822  32.8283 0001710  70.5399 289.5913 13.10373481310188
ONEWEB-0054             
1 45158U 20008AD  26185.33972792  .00000710  00000+0  19964-2 0  9995
2 45158  87.8826  32.8508 0001865  84.0870 276.0470 13.10373814310277
ONEWEB-0056             
1 45159U 20008AE  26185.53976117 -.00000320  00000+0 -95195-3 0  9993
2 45159  87.8828  32.8042 0002077  85.9930 274.1435 13.10374280310454
ONEWEB-0057             
1 45160U 20008AF  26185.32795528  .00000580  00000+0  16241-2 0  9997
2 45160  87.8824  32.8583 0001828  68.7979 291.3344 13.10373449310598
ONEWEB-0058             
1 45161U 20008AG  26185.54381715 -.00000085  00000+0 -28091-3 0  9990
2 45161  87.8816  32.8199 0001734  92.7482 267.3844 13.10377093310693
ONEWEB-0059             
1 45162U 20008AH  26185.54005526 -.00000300  00000+0 -89452-3 0  9992
2 45162  87.8820  32.8201 0001620  80.0680 280.0630 13.10372876310595
ONEWEB-0062             
1 45163U 20008AJ  26185.33447958  .00000684  00000+0  19232-2 0  9990
2 45163  87.8826  32.8497 0001895  95.6370 264.4974 13.10373896310434
ONEWEB-0065             
1 45164U 20008AK  26185.29204135 -.00000608  00000+0 -17788-2 0  9996
2 45164  87.8818  32.8659 0001956  77.0614 283.0731 13.10373072310129
ONEWEB-0066             
1 45424U 20020A   26185.23717493 -.00000335  00000+0 -98190-3 0  9993
2 45424  87.8875  17.6760 0001618  88.8319 271.2994 13.11411092304918
ONEWEB-0067             
1 45425U 20020B   26185.27495353  .00000041  00000+0  78974-4 0  9997
2 45425  87.8902  17.5935 0001817  82.6637 277.4697 13.11427022304973
ONEWEB-0080             
1 45426U 20020C   26185.50350585 -.00000006  00000+0 -51378-4 0  9993
2 45426  87.8892  17.6211 0001878  98.1499 261.9843 13.11417667304970
ONEWEB-0090             
1 45427U 20020D   26185.53233385  .00000401  00000+0  10967-2 0  9999
2 45427  87.8887  17.6195 0001865  90.7214 269.4128 13.11415276304945
ONEWEB-0061             
1 45428U 20020E   26185.25906674 -.00000462  00000+0 -13408-2 0  9999
2 45428  87.8888  17.6587 0001811  89.8340 270.2995 13.11417178304868
ONEWEB-0081             
1 45429U 20020F   26185.46945132 -.00000106  00000+0 -33378-3 0  9999
2 45429  87.8883  17.6262 0001689  84.7853 275.3468 13.11414329305003
ONEWEB-0069             
1 45430U 20020G   26185.54759622 -.00000258  00000+0 -76393-3 0  9999
2 45430  87.8884  17.6136 0001657  87.8086 272.3232 13.11417091304940
ONEWEB-0031             
1 45431U 20020H   26185.50678866 -.00002572  00000+0 -72961-2 0  9993
2 45431  87.8876  17.6257 0001756  95.2324 264.9005 13.11394141304927
ONEWEB-0027             
1 45432U 20020J   26185.49865389  .00000011  00000+0 -58023-5 0  9991
2 45432  87.9135   2.4207 0002312  98.0949 262.0445 13.17652244308633
ONEWEB-0064             
1 45433U 20020K   26185.50505655  .00000076  00000+0  17749-3 0  9999
2 45433  87.8882  17.6185 0001945  92.3042 267.8308 13.11419196304950
ONEWEB-0018             
1 45434U 20020L   26185.53713201  .00000231  00000+0  61701-3 0  9991
2 45434  87.8879  17.6116 0001469  95.1558 264.9738 13.11413812304904
ONEWEB-0083             
1 45435U 20020M   26185.52724885  .00000508  00000+0  13986-2 0  9999
2 45435  87.8886  17.6081 0001819  90.9662 269.1675 13.11415034304941
ONEWEB-0095             
1 45436U 20020N   26185.51876522  .00000521  00000+0  14343-2 0  9998
2 45436  87.8889  17.6186 0002473  82.4276 277.7133 13.11416473304947
ONEWEB-0092             
1 45437U 20020P   26185.47291055 -.00002853  00000+0 -80916-2 0  9997
2 45437  87.8887  17.6191 0001846  83.7330 276.4008 13.11380708305051
ONEWEB-0085             
1 45438U 20020Q   26185.29808150  .00000525  00000+0  14456-2 0  9996
2 45438  87.8880  17.6595 0001850  89.0144 271.1195 13.11415639304915
ONEWEB-0096             
1 45439U 20020R   26185.29990685  .00000493  00000+0  13551-2 0  9991
2 45439  87.8885  17.6560 0001964  88.3795 271.7558 13.11414874304901
ONEWEB-0037             
1 45440U 20020S   26185.47924573 -.00000368  00000+0 -10674-2 0  9992
2 45440  87.8898  17.5926 0001906  87.0612 273.0735 13.11913522304964
ONEWEB-0042             
1 45441U 20020T   26185.28960616  .00000530  00000+0  14585-2 0  9994
2 45441  87.8887  17.6545 0001789  86.3867 273.7465 13.11416737304901
ONEWEB-0098             
1 45442U 20020U   26185.51437987  .00000533  00000+0  14689-2 0  9999
2 45442  87.8887  17.6185 0001830  99.4397 260.6937 13.11418263304918
ONEWEB-0055             
1 45443U 20020V   26185.49305102 -.00000405  00000+0 -11776-2 0  9994
2 45443  87.8885  17.6220 0001886  91.4838 268.6506 13.11417558304882
ONEWEB-0093             
1 45444U 20020W   26185.47571972 -.00000376  00000+0 -11054-2 0  9999
2 45444  87.8885  17.6196 0001601  81.6544 278.4766 13.10890667304944
ONEWEB-0029             
1 45445U 20020X   26185.50010946 -.00000155  00000+0 -47176-3 0  9993
2 45445  87.8880  17.6214 0001583  85.6142 274.5167 13.11417127304925
