OBJECT_NAME,OBJECT_ID,EPOCH,MEAN_MOTION,ECCENTRICITY,INCLINATION,RA_OF_ASC_NODE,ARG_OF_PERICENTER,MEAN_ANOMALY,EPHEMERIS_TYPE,CLASSIFICATION_TYPE,NORAD_CAT_ID,ELEMENT_SET_NO,REV_AT_EPOCH,BSTAR,MEAN_MOTION_DOT,MEAN_MOTION_DDOT
ONEWEB-0053,2020-008AC,2026-07-04T12:47:40.500960,13.10373481,.00017106,87.8822,32.8283,70.5399,289.5913,0,U,45157,999,31018,-.17960435E-2,-.614E-5,0
ONEWEB-0054,2020-008AD,2026-07-04T08:09:12.492288,13.10373814,.00018653,87.8826,32.8508,84.0870,276.0470,0,U,45158,999,31027,.19963645E-2,.71E-5,0
ONEWEB-0056,2020-008AE,2026-07-04T12:57:15.365088,13.10374280,.00020773,87.8828,32.8042,85.9930,274.1435,0,U,45159,999,31045,-.95195028E-3,-.32E-5,0
ONEWEB-0057,2020-008AF,2026-07-04T07:52:15.336192,13.10373449,.00018284,87.8824,32.8583,68.7979,291.3344,0,U,45160,999,31059,.16241177E-2,.58E-5,0
ONEWEB-0058,2020-008AG,2026-07-04T13:03:05.801760,13.10377093,.00017344,87.8816,32.8199,92.7482,267.3844,0,U,45161,999,31069,-.28090686E-3,-.85E-6,0
ONEWEB-0059,2020-008AH,2026-07-04T12:57:40.774464,13.10372876,.00016202,87.8820,32.8201,80.0680,280.0630,0,U,45162,999,31059,-.89452088E-3,-.3E-5,0
ONEWEB-0062,2020-008AJ,2026-07-04T08:01:39.035712,13.10373896,.00018953,87.8826,32.8497,95.6370,264.4974,0,U,45163,999,31043,.19232443E-2,.684E-5,0
ONEWEB-0065,2020-008AK,2026-07-04T07:00:32.372640,13.10373072,.00019562,87.8818,32.8659,77.0614,283.0731,0,U,45164,999,31012,-.17787846E-2,-.608E-5,0
ONEWEB-0066,2020-020A,2026-07-04T05:41:31.913952,13.11411092,.00016182,87.8875,17.6760,88.8319,271.2994,0,U,45424,999,30491,-.98190448E-3,-.335E-5,0
ONEWEB-0067,2020-020B,2026-07-04T06:35:55.984992,13.11427022,.00018176,87.8902,17.5935,82.6637,277.4697,0,U,45425,999,30497,.7897434E-4,.41E-6,0
ONEWEB-0080,2020-020C,2026-07-04T12:05:02.905440,13.11417667,.00018788,87.8892,17.6211,98.1499,261.9843,0,U,45426,999,30497,-.51378253E-4,-.6E-7,0
ONEWEB-0090,2020-020D,2026-07-04T12:46:33.644640,13.11415276,.00018652,87.8887,17.6195,90.7214,269.4128,0,U,45427,999,30494,.10966935E-2,.401E-5,0
ONEWEB-0061,2020-020E,2026-07-04T06:13:03.366336,13.11417178,.00018117,87.8888,17.6587,89.8340,270.2995,0,U,45428,999,30486,-.13408288E-2,-.462E-5,0
ONEWEB-0081,2020-020F,2026-07-04T11:16:00.594048,13.11414329,.00016897,87.8883,17.6262,84.7853,275.3468,0,U,45429,999,30500,-.33378435E-3,-.106E-5,0
ONEWEB-0069,2020-020G,2026-07-04T13:08:32.313408,13.11417091,.00016571,87.8884,17.6136,87.8086,272.3232,0,U,45430,999,30494,-.76392804E-3,-.258E-5,0
ONEWEB-0031,2020-020H,2026-07-04T12:09:46.540224,13.11394141,.00017564,87.8876,17.6257,95.2324,264.9005,0,U,45431,999,30492,-.72960688E-2,-.2572E-4,0
ONEWEB-0027,2020-020J,2026-07-04T11:58:03.696096,13.17652244,.00023129,87.9135,2.4207,98.0949,262.0445,0,U,45432,999,30863,-.5802294E-5,.11E-6,0
ONEWEB-0064,2020-020K,2026-07-04T12:07:16.885920,13.11419196,.00019456,87.8882,17.6185,92.3042,267.8308,0,U,45433,999,30495,.17749135E-3,.76E-6,0
ONEWEB-0018,2020-020L,2026-07-04T12:53:28.205664,13.11413812,.00014695,87.8879,17.6116,95.1558,264.9738,0,U,45434,999,30490,.61700646E-3,.231E-5,0
ONEWEB-0083,2020-020M,2026-07-04T12:39:14.300640,13.11415034,.00018198,87.8886,17.6081,90.9662,269.1675,0,U,45435,999,30494,.13986109E-2,.508E-5,0
ONEWEB-0095,2020-020N,2026-07-04T12:27:01.315008,13.11416473,.00024736,87.8889,17.6186,82.4276,277.7133,0,U,45436,999,30494,.14343225E-2,.521E-5,0
ONEWEB-0092,2020-020P,2026-07-04T11:20:59.471520,13.11380708,.00018469,87.8887,17.6191,83.7330,276.4008,0,U,45437,999,30505,-.80916173E-2,-.2853E-4,0
ONEWEB-0085,2020-020Q,2026-07-04T07:09:14.241600,13.11415639,.00018505,87.8880,17.6595,89.0144,271.1195,0,U,45438,999,30491,.14456185E-2,.525E-5,0
ONEWEB-0096,2020-020R,2026-07-04T07:11:51.951840,13.11414874,.00019647,87.8885,17.6560,88.3795,271.7558,0,U,45439,999,30490,.13550795E-2,.493E-5,0
ONEWEB-0037,2020-020S,2026-07-04T11:30:06.831072,13.11913522,.00019066,87.8898,17.5926,87.0612,273.0735,0,U,45440,999,30496,-.10673545E-2,-.368E-5,0
ONEWEB-0042,2020-020T,2026-07-04T06:57:01.972224,13.11416737,.00017891,87.8887,17.6545,86.3867,273.7465,0,U,45441,999,30490,.14585097E-2,.53E-5,0
ONEWEB-0098,2020-020U,2026-07-04T12:20:42.420768,13.11418263,.00018307,87.8887,17.6185,99.4397,260.6937,0,U,45442,999,30491,.14688886E-2,.533E-5,0
ONEWEB-0055,2020-020V,2026-07-04T11:49:59.608128,13.11417558,.00018863,87.8885,17.6220,91.4838,268.6506,0,U,45443,999,30488,-.11775836E-2,-.405E-5,0
ONEWEB-0093,2020-020W,2026-07-04T11:25:02.183808,13.10890667,.00016016,87.8885,17.6196,81.6544,278.4766,0,U,45444,999,30494,-.11054298E-2,-.376E-5,0
ONEWEB-0029,2020-020X,2026-07-04T12:00:09.457344,13.11417127,.00015837,87.8880,17.6214,85.6142,274.5167,0,U,45445,999,30492,-.47175859E-3,-.155E-5,0
